[{"OBJECT_NAME":"LEMUR-2-EMERSONROSE","OBJECT_ID":"2025-052BD","EPOCH":"2026-03-09T22:41:34.308672","MEAN_MOTION":14.98235234,"ECCENTRICITY":0.00026118,"INCLINATION":97.701,"RA_OF_ASC_NODE":323.5746,"ARG_OF_PERICENTER":47.547,"MEAN_ANOMALY":312.5973,"EPHEMERIS_TYPE":0,"CLASSIFICATION_TYPE":"U","NORAD_CAT_ID":63261,"ELEMENT_SET_NO":999,"REV_AT_EPOCH":5387,"BSTAR":0.00054278878,"MEAN_MOTION_DOT":6.392e-5,"MEAN_MOTION_DDOT":0},{"OBJECT_NAME":"STARLINK-34362","OBJECT_ID":"2025-123B","EPOCH":"2026-03-09T22:00:01.999584","MEAN_MOTION":14.98350235,"ECCENTRICITY":0.00034932,"INCLINATION":70.0006,"RA_OF_ASC_NODE":193.9703,"ARG_OF_PERICENTER":271.9411,"MEAN_ANOMALY":332.5424,"EPHEMERIS_TYPE":0,"CLASSIFICATION_TYPE":"U","NORAD_CAT_ID":64292,"ELEMENT_SET_NO":999,"REV_AT_EPOCH":576,"BSTAR":-0.0027762932,"MEAN_MOTION_DOT":-0.00033082,"MEAN_MOTION_DDOT":0}]
